[{"CCSDS_OMM_VERS":"2.0","COMMENT":"GENERATED VIA SPACE-TRACK.ORG API","CREATION_DATE":"2020-11-30T14:46:10","ORIGINATOR":"18 SPCS","OBJECT_NAME":"GALILEO-FM2","OBJECT_ID":"2011-060B","CENTER_NAME":"EARTH","REF_FRAME":"TEME","TIME_SYSTEM":"UTC","MEAN_ELEMENT_THEORY":"SGP4","EPOCH":"2020-11-29T18:53:07.219104","MEAN_MOTION":"1.70475559","ECCENTRICITY":"0.00041120","INCLINATION":"56.7288","RA_OF_ASC_NODE":"36.7467","ARG_OF_PERICENTER":"290.8878","MEAN_ANOMALY":"11.7108","EPHEMERIS_TYPE":"0","CLASSIFICATION_TYPE":"U","NORAD_CAT_ID":"37847","ELEMENT_SET_NO":"999","REV_AT_EPOCH":"5671","BSTAR":"0.00000000000000","MEAN_MOTION_DOT":"-0.00000076","MEAN_MOTION_DDOT":"0.0000000000000","SEMIMAJOR_AXIS":"29600.139","PERIOD":"844.695","APOAPSIS":"23234.176","PERIAPSIS":"23209.833","OBJECT_TYPE":"PAYLOAD","RCS_SIZE":"LARGE","COUNTRY_CODE":"ESA","LAUNCH_DATE":"2011-10-21","SITE":"FRGUI","DECAY_DATE":null,"FILE":"2894796","GP_ID":"166627913","TLE_LINE0":"0 GALILEO-FM2","TLE_LINE1":"1 37847U 11060B   20334.78688911 -.00000076  00000-0  00000+0 0  9990","TLE_LINE2":"2 37847  56.7288  36.7467 0004112 290.8878  11.7108  1.70475559 56710"},{"CCSDS_OMM_VERS":"2.0","COMMENT":"GENERATED VIA SPACE-TRACK.ORG API","CREATION_DATE":"2020-12-03T03:02:41","ORIGINATOR":"18 SPCS","OBJECT_NAME":"GALILEO-FM2","OBJECT_ID":"2011-060B","CENTER_NAME":"EARTH","REF_FRAME":"TEME","TIME_SYSTEM":"UTC","MEAN_ELEMENT_THEORY":"SGP4","EPOCH":"2020-12-02T19:40:43.928832","MEAN_MOTION":"1.70475465","ECCENTRICITY":"0.00042340","INCLINATION":"56.7305","RA_OF_ASC_NODE":"36.6634","ARG_OF_PERICENTER":"291.4716","MEAN_ANOMALY":"72.5853","EPHEMERIS_TYPE":"0","CLASSIFICATION_TYPE":"U","NORAD_CAT_ID":"37847","ELEMENT_SET_NO":"999","REV_AT_EPOCH":"5665","BSTAR":"0.00000000000000","MEAN_MOTION_DOT":"-0.00000065","MEAN_MOTION_DDOT":"0.0000000000000","SEMIMAJOR_AXIS":"29600.150","PERIOD":"844.696","APOAPSIS":"23234.548","PERIAPSIS":"23209.482","OBJECT_TYPE":"PAYLOAD","RCS_SIZE":"LARGE","COUNTRY_CODE":"ESA","LAUNCH_DATE":"2011-10-21","SITE":"FRGUI","DECAY_DATE":null,"FILE":"2896409","GP_ID":"166779847","TLE_LINE0":"0 GALILEO-FM2","TLE_LINE1":"1 37847U 11060B   20337.81995288 -.00000065  00000-0  00000-0 0  9994","TLE_LINE2":"2 37847  56.7305  36.6634 0004234 291.4716  72.5853  1.70475465 56659"},{"CCSDS_OMM_VERS":"2.0","COMMENT":"GENERATED VIA SPACE-TRACK.ORG API","CREATION_DATE":"2020-12-02T22:46:10","ORIGINATOR":"18 SPCS","OBJECT_NAME":"GALILEO-FM2","OBJECT_ID":"2011-060B","CENTER_NAME":"EARTH","REF_FRAME":"TEME","TIME_SYSTEM":"UTC","MEAN_ELEMENT_THEORY":"SGP4","EPOCH":"2020-12-02T19:40:43.928832","MEAN_MOTION":"1.70475465","ECCENTRICITY":"0.00042340","INCLINATION":"56.7305","RA_OF_ASC_NODE":"36.6634","ARG_OF_PERICENTER":"291.4716","MEAN_ANOMALY":"72.5853","EPHEMERIS_TYPE":"0","CLASSIFICATION_TYPE":"U","NORAD_CAT_ID":"37847","ELEMENT_SET_NO":"999","REV_AT_EPOCH":"5677","BSTAR":"0.00000000000000","MEAN_MOTION_DOT":"-0.00000065","MEAN_MOTION_DDOT":"0.0000000000000","SEMIMAJOR_AXIS":"29600.150","PERIOD":"844.696","APOAPSIS":"23234.548","PERIAPSIS":"23209.482","OBJECT_TYPE":"PAYLOAD","RCS_SIZE":"LARGE","COUNTRY_CODE":"ESA","LAUNCH_DATE":"2011-10-21","SITE":"FRGUI","DECAY_DATE":null,"FILE":"2896351","GP_ID":"166764864","TLE_LINE0":"0 GALILEO-FM2","TLE_LINE1":"1 37847U 11060B   20337.81995288 -.00000065  00000-0  00000+0 0  9993","TLE_LINE2":"2 37847  56.7305  36.6634 0004234 291.4716  72.5853  1.70475465 56772"},{"CCSDS_OMM_VERS":"2.0","COMMENT":"GENERATED VIA SPACE-TRACK.ORG API","CREATION_DATE":"2020-12-04T04:46:55","ORIGINATOR":"18 SPCS","OBJECT_NAME":"GALILEO-FM2","OBJECT_ID":"2011-060B","CENTER_NAME":"EARTH","REF_FRAME":"TEME","TIME_SYSTEM":"UTC","MEAN_ELEMENT_THEORY":"SGP4","EPOCH":"2020-12-03T09:51:05.572224","MEAN_MOTION":"1.70475443","ECCENTRICITY":"0.00042560","INCLINATION":"56.7308","RA_OF_ASC_NODE":"36.6472","ARG_OF_PERICENTER":"291.5845","MEAN_ANOMALY":"74.8927","EPHEMERIS_TYPE":"0","CLASSIFICATION_TYPE":"U","NORAD_CAT_ID":"37847","ELEMENT_SET_NO":"999","REV_AT_EPOCH":"5666","BSTAR":"0.00000000000000","MEAN_MOTION_DOT":"-0.00000063","MEAN_MOTION_DDOT":"0.0000000000000","SEMIMAJOR_AXIS":"29600.153","PERIOD":"844.696","APOAPSIS":"23234.615","PERIAPSIS":"23209.420","OBJECT_TYPE":"PAYLOAD","RCS_SIZE":"LARGE","COUNTRY_CODE":"ESA","LAUNCH_DATE":"2011-10-21","SITE":"FRGUI","DECAY_DATE":null,"FILE":"2896992","GP_ID":"166857404","TLE_LINE0":"0 GALILEO-FM2","TLE_LINE1":"1 37847U 11060B   20338.41048116 -.00000063  00000-0  00000-0 0  9998","TLE_LINE2":"2 37847  56.7308  36.6472 0004256 291.5845  74.8927  1.70475443 56664"},{"CCSDS_OMM_VERS":"2.0","COMMENT":"GENERATED VIA SPACE-TRACK.ORG API","CREATION_DATE":"2020-12-05T05:28:40","ORIGINATOR":"18 SPCS","OBJECT_NAME":"GALILEO-FM2","OBJECT_ID":"2011-060B","CENTER_NAME":"EARTH","REF_FRAME":"TEME","TIME_SYSTEM":"UTC","MEAN_ELEMENT_THEORY":"SGP4","EPOCH":"2020-12-04T02:14:50.805312","MEAN_MOTION":"1.70475419","ECCENTRICITY":"0.00042750","INCLINATION":"56.7313","RA_OF_ASC_NODE":"36.6285","ARG_OF_PERICENTER":"291.6452","MEAN_ANOMALY":"134.1038","EPHEMERIS_TYPE":"0","CLASSIFICATION_TYPE":"U","NORAD_CAT_ID":"37847","ELEMENT_SET_NO":"999","REV_AT_EPOCH":"5667","BSTAR":"0.00000000000000","MEAN_MOTION_DOT":"-0.00000062","MEAN_MOTION_DDOT":"0.0000000000000","SEMIMAJOR_AXIS":"29600.155","PERIOD":"844.696","APOAPSIS":"23234.674","PERIAPSIS":"23209.366","OBJECT_TYPE":"PAYLOAD","RCS_SIZE":"LARGE","COUNTRY_CODE":"ESA","LAUNCH_DATE":"2011-10-21","SITE":"FRGUI","DECAY_DATE":null,"FILE":"2897577","GP_ID":"166914123","TLE_LINE0":"0 GALILEO-FM2","TLE_LINE1":"1 37847U 11060B   20339.09364358 -.00000062  00000-0  00000-0 0  9991","TLE_LINE2":"2 37847  56.7313  36.6285 0004275 291.6452 134.1038  1.70475419 56675"},{"CCSDS_OMM_VERS":"2.0","COMMENT":"GENERATED VIA SPACE-TRACK.ORG API","CREATION_DATE":"2020-12-05T20:11:19","ORIGINATOR":"18 SPCS","OBJECT_NAME":"GALILEO-FM2","OBJECT_ID":"2011-060B","CENTER_NAME":"EARTH","REF_FRAME":"TEME","TIME_SYSTEM":"UTC","MEAN_ELEMENT_THEORY":"SGP4","EPOCH":"2020-12-05T03:55:25.728672","MEAN_MOTION":"1.70475384","ECCENTRICITY":"0.00043090","INCLINATION":"56.7319","RA_OF_ASC_NODE":"36.5991","ARG_OF_PERICENTER":"291.8354","MEAN_ANOMALY":"70.5034","EPHEMERIS_TYPE":"0","CLASSIFICATION_TYPE":"U","NORAD_CAT_ID":"37847","ELEMENT_SET_NO":"999","REV_AT_EPOCH":"5669","BSTAR":"0.00000000000000","MEAN_MOTION_DOT":"-0.00000062","MEAN_MOTION_DDOT":"0.0000000000000","SEMIMAJOR_AXIS":"29600.159","PERIOD":"844.696","APOAPSIS":"23234.779","PERIAPSIS":"23209.270","OBJECT_TYPE":"PAYLOAD","RCS_SIZE":"LARGE","COUNTRY_CODE":"ESA","LAUNCH_DATE":"2011-10-21","SITE":"FRGUI","DECAY_DATE":null,"FILE":"2897996","GP_ID":"166987845","TLE_LINE0":"0 GALILEO-FM2","TLE_LINE1":"1 37847U 11060B   20340.16349223 -.00000062  00000-0  00000-0 0  9995","TLE_LINE2":"2 37847  56.7319  36.5991 0004309 291.8354  70.5034  1.70475384 56697"},{"CCSDS_OMM_VERS":"2.0","COMMENT":"GENERATED VIA SPACE-TRACK.ORG API","CREATION_DATE":"2020-12-05T14:56:10","ORIGINATOR":"18 SPCS","OBJECT_NAME":"GALILEO-FM2","OBJECT_ID":"2011-060B","CENTER_NAME":"EARTH","REF_FRAME":"TEME","TIME_SYSTEM":"UTC","MEAN_ELEMENT_THEORY":"SGP4","EPOCH":"2020-12-05T08:32:18.299904","MEAN_MOTION":"1.70475378","ECCENTRICITY":"0.00043180","INCLINATION":"56.7319","RA_OF_ASC_NODE":"36.5938","ARG_OF_PERICENTER":"291.8621","MEAN_ANOMALY":"188.4801","EPHEMERIS_TYPE":"0","CLASSIFICATION_TYPE":"U","NORAD_CAT_ID":"37847","ELEMENT_SET_NO":"999","REV_AT_EPOCH":"5681","BSTAR":"0.00000000000000","MEAN_MOTION_DOT":"-0.00000062","MEAN_MOTION_DDOT":"0.0000000000000","SEMIMAJOR_AXIS":"29600.160","PERIOD":"844.696","APOAPSIS":"23234.806","PERIAPSIS":"23209.244","OBJECT_TYPE":"PAYLOAD","RCS_SIZE":"LARGE","COUNTRY_CODE":"ESA","LAUNCH_DATE":"2011-10-21","SITE":"FRGUI","DECAY_DATE":null,"FILE":"2897925","GP_ID":"166951661","TLE_LINE0":"0 GALILEO-FM2","TLE_LINE1":"1 37847U 11060B   20340.35576736 -.00000062  00000-0  00000+0 0  9996","TLE_LINE2":"2 37847  56.7319  36.5938 0004318 291.8621 188.4801  1.70475378 56813"},{"CCSDS_OMM_VERS":"2.0","COMMENT":"GENERATED VIA SPACE-TRACK.ORG API","CREATION_DATE":"2020-12-06T03:55:47","ORIGINATOR":"18 SPCS","OBJECT_NAME":"GALILEO-FM2","OBJECT_ID":"2011-060B","CENTER_NAME":"EARTH","REF_FRAME":"TEME","TIME_SYSTEM":"UTC","MEAN_ELEMENT_THEORY":"SGP4","EPOCH":"2020-12-05T18:09:42.420672","MEAN_MOTION":"1.70475360","ECCENTRICITY":"0.00043300","INCLINATION":"56.7322","RA_OF_ASC_NODE":"36.5828","ARG_OF_PERICENTER":"291.9313","MEAN_ANOMALY":"74.4972","EPHEMERIS_TYPE":"0","CLASSIFICATION_TYPE":"U","NORAD_CAT_ID":"37847","ELEMENT_SET_NO":"999","REV_AT_EPOCH":"5670","BSTAR":"0.00000000000000","MEAN_MOTION_DOT":"-0.00000063","MEAN_MOTION_DDOT":"0.0000000000000","SEMIMAJOR_AXIS":"29600.162","PERIOD":"844.696","APOAPSIS":"23234.844","PERIAPSIS":"23209.210","OBJECT_TYPE":"PAYLOAD","RCS_SIZE":"LARGE","COUNTRY_CODE":"ESA","LAUNCH_DATE":"2011-10-21","SITE":"FRGUI","DECAY_DATE":null,"FILE":"2898191","GP_ID":"167014032","TLE_LINE0":"0 GALILEO-FM2","TLE_LINE1":"1 37847U 11060B   20340.75674098 -.00000063  00000-0  00000-0 0  9992","TLE_LINE2":"2 37847  56.7322  36.5828 0004330 291.9313  74.4972  1.70475360 56700"}]